{"type": "FeatureCollection", "features": [ {"type": "Feature", "properties": {"norad_id": 37996, "name": "COSMOS 2251 DEB", "group": "cosmos-2251-debris", "lat": 9.179483669388935, "lon": -138.69266013719155, "alt_km": 733.2065504237762, "timestamp": "2025-12-03T22:42:33.030439+00:00", "meta": {"OBJECT_NAME": "COSMOS 2251 DEB", "OBJECT_ID": "1993-036BQX", "EPOCH": "2025-11-16T18:35:00.708864", "MEAN_MOTION": 14.09591608, "ECCENTRICITY": 0.02219827, "INCLINATION": 74.0658, "RA_OF_ASC_NODE": 248.8308, "ARG_OF_PERICENTER": 5.4709, "MEAN_ANOMALY": 354.8776, "EPHEMERIS_TYPE": 0, "CLASSIFICATION_TYPE": "U", "NORAD_CAT_ID": 37996, "ELEMENT_SET_NO": 999, "REV_AT_EPOCH": 55769, "BSTAR": 0.0096790999, "MEAN_MOTION_DOT": 0.00021331, "MEAN_MOTION_DDOT": 0}, "tle": {"line1": "1 37996U 93036BQX 25320.77431376  .00021331  00000+0  96791-2 0  9998", "line2": "2 37996  74.0658 248.8308 0221982   5.4709 354.8776 14.09591608557693"}}, "geometry": {"type": "Point", "coordinates": [-138.69266013719155, 9.179483669388935]}}, {"type": "Feature", "properties": {"norad_id": 37998, "name": "COSMOS 2251 DEB", "group": "cosmos-2251-debris", "lat": -24.76418490458492, "lon": -116.09459503869336, "alt_km": 731.9099514391655, "timestamp": "2025-12-03T22:42:33.030448+00:00", "meta": {"OBJECT_NAME": "COSMOS 2251 DEB", "OBJECT_ID": "1993-036BQZ", "EPOCH": "2025-11-29T12:31:01.771392", "MEAN_MOTION": 14.45395467, "ECCENTRICITY": 0.00197878, "INCLINATION": 74.0369, "RA_OF_ASC_NODE": 259.7366, "ARG_OF_PERICENTER": 336.2714, "MEAN_ANOMALY": 23.753, "EPHEMERIS_TYPE": 0, "CLASSIFICATION_TYPE": "U", "NORAD_CAT_ID": 37998, "ELEMENT_SET_NO": 999, "REV_AT_EPOCH": 64096, "BSTAR": 0.00059073677, "MEAN_MOTION_DOT": 2.057e-05, "MEAN_MOTION_DDOT": 0}, "tle": {"line1": "1 37998U 93036BQZ 25333.52154828  .00002057  00000+0  59074-3 0  9999", "line2": "2 37998  74.0369 259.7366 0019787 336.2714  23.7530 14.45395467640966"}}, "geometry": {"type": "Point", "coordinates": [-116.09459503869336, -24.76418490458492]}}, {"type": "Feature", "properties": {"norad_id": 38001, "name": "COSMOS 2251 DEB", "group": "cosmos-2251-debris", "lat": -46.57358201075909, "lon": 132.01153270138568, "alt_km": 594.265263313152, "timestamp": "2025-12-03T22:42:33.030457+00:00", "meta": {"OBJECT_NAME": "COSMOS 2251 DEB", "OBJECT_ID": "1993-036BRC", "EPOCH": "2025-12-01T22:54:46.080864", "MEAN_MOTION": 14.78885879, "ECCENTRICITY": 0.00651552, "INCLINATION": 73.9989, "RA_OF_ASC_NODE": 153.583, "ARG_OF_PERICENTER": 305.0722, "MEAN_ANOMALY": 207.3284, "EPHEMERIS_TYPE": 0, "CLASSIFICATION_TYPE": "U", "NORAD_CAT_ID": 38001, "ELEMENT_SET_NO": 999, "REV_AT_EPOCH": 74548, "BSTAR": 0.00081789064, "MEAN_MOTION_DOT": 6.215e-05, "MEAN_MOTION_DDOT": 0}, "tle": {"line1": "1 38001U 93036BRC 25335.95470001  .00006215  00000+0  81789-3 0  9996", "line2": "2 38001  73.9989 153.5830 0065155 305.0722 207.3284 14.78885879745484"}}, "geometry": {"type": "Point", "coordinates": [132.01153270138568, -46.57358201075909]}}, {"type": "Feature", "properties": {"norad_id": 38006, "name": "COSMOS 2251 DEB", "group": "cosmos-2251-debris", "lat": 53.979165228014836, "lon": -148.8713778205011, "alt_km": 758.7455271845056, "timestamp": "2025-12-03T22:42:33.030466+00:00", "meta": {"OBJECT_NAME": "COSMOS 2251 DEB", "OBJECT_ID": "1993-036BRH", "EPOCH": "2025-12-01T12:00:57.044736", "MEAN_MOTION": 14.45530874, "ECCENTRICITY": 0.00745141, "INCLINATION": 73.8466, "RA_OF_ASC_NODE": 59.2312, "ARG_OF_PERICENTER": 10.3044, "MEAN_ANOMALY": 349.9618, "EPHEMERIS_TYPE": 0, "CLASSIFICATION_TYPE": "U", "NORAD_CAT_ID": 38006, "ELEMENT_SET_NO": 999, "REV_AT_EPOCH": 62797, "BSTAR": 0.0024598906, "MEAN_MOTION_DOT": 8.963e-05, "MEAN_MOTION_DDOT": 0}, "tle": {"line1": "1 38006U 93036BRH 25335.50066024  .00008963  00000+0  24599-2 0  9995", "line2": "2 38006  73.8466  59.2312 0074514  10.3044 349.9618 14.45530874627970"}}, "geometry": {"type": "Point", "coordinates": [-148.8713778205011, 53.979165228014836]}}, {"type": "Feature", "properties": {"norad_id": 38054, "name": "COSMOS 2251 DEB", "group": "cosmos-2251-debris", "lat": 3.5162321432073464, "lon": -78.80727412865465, "alt_km": 1084.3139065438863, "timestamp": "2025-12-03T22:42:33.030475+00:00", "meta": {"OBJECT_NAME": "COSMOS 2251 DEB", "OBJECT_ID": "1993-036BRL", "EPOCH": "2025-12-02T22:19:42.729888", "MEAN_MOTION": 13.62240867, "ECCENTRICITY": 0.03612337, "INCLINATION": 73.958, "RA_OF_ASC_NODE": 281.8404, "ARG_OF_PERICENTER": 261.8039, "MEAN_ANOMALY": 157.9186, "EPHEMERIS_TYPE": 0, "CLASSIFICATION_TYPE": "U", "NORAD_CAT_ID": 38054, "ELEMENT_SET_NO": 999, "REV_AT_EPOCH": 67046, "BSTAR": 0.0040803835, "MEAN_MOTION_DOT": 4.866e-05, "MEAN_MOTION_DDOT": 0}, "tle": {"line1": "1 38054U 93036BRL 25336.93035567  .00004866  00000+0  40804-2 0  9999", "line2": "2 38054  73.9580 281.8404 0361233 261.8039 157.9186 13.62240867670467"}}, "geometry": {"type": "Point", "coordinates": [-78.80727412865465, 3.5162321432073464]}}, {"type": "Feature", "properties": {"norad_id": 38055, "name": "COSMOS 2251 DEB", "group": "cosmos-2251-debris", "lat": -73.67045563067283, "lon": 122.19645443267981, "alt_km": 643.4624997400151, "timestamp": "2025-12-03T22:42:33.030484+00:00", "meta": {"OBJECT_NAME": "COSMOS 2251 DEB", "OBJECT_ID": "1993-036BRM", "EPOCH": "2025-11-30T11:23:37.489344", "MEAN_MOTION": 14.76741647, "ECCENTRICITY": 0.00655995, "INCLINATION": 74.0094, "RA_OF_ASC_NODE": 230.8354, "ARG_OF_PERICENTER": 1.0653, "MEAN_ANOMALY": 178.44, "EPHEMERIS_TYPE": 0, "CLASSIFICATION_TYPE": "U", "NORAD_CAT_ID": 38055, "ELEMENT_SET_NO": 999, "REV_AT_EPOCH": 60501, "BSTAR": 0.0010104465, "MEAN_MOTION_DOT": 7.307e-05, "MEAN_MOTION_DDOT": 0}, "tle": {"line1": "1 38055U 93036BRM 25334.47473946  .00007307  00000+0  10104-2 0  9997", "line2": "2 38055  74.0094 230.8354 0065599   1.0653 178.4400 14.76741647605014"}}, "geometry": {"type": "Point", "coordinates": [122.19645443267981, -73.67045563067283]}}, {"type": "Feature", "properties": {"norad_id": 38060, "name": "COSMOS 2251 DEB", "group": "cosmos-2251-debris", "lat": -6.61254857354882, "lon": 134.08787133967127, "alt_km": 708.2863013280603, "timestamp": "2025-12-03T22:42:33.030493+00:00", "meta": {"OBJECT_NAME": "COSMOS 2251 DEB", "OBJECT_ID": "1993-036BRS", "EPOCH": "2025-11-30T16:46:11.567136", "MEAN_MOTION": 14.63742552, "ECCENTRICITY": 0.0057629, "INCLINATION": 74.0424, "RA_OF_ASC_NODE": 318.4162, "ARG_OF_PERICENTER": 67.815, "MEAN_ANOMALY": 292.9119, "EPHEMERIS_TYPE": 0, "CLASSIFICATION_TYPE": "U", "NORAD_CAT_ID": 38060, "ELEMENT_SET_NO": 999, "REV_AT_EPOCH": 71788, "BSTAR": 0.00051174098, "MEAN_MOTION_DOT": 2.701e-05, "MEAN_MOTION_DDOT": 0}, "tle": {"line1": "1 38060U 93036BRS 25334.69874499  .00002701  00000+0  51174-3 0  9991", "line2": "2 38060  74.0424 318.4162 0057629  67.8150 292.9119 14.63742552717884"}}, "geometry": {"type": "Point", "coordinates": [134.08787133967127, -6.61254857354882]}}, {"type": "Feature", "properties": {"norad_id": 38062, "name": "COSMOS 2251 DEB", "group": "cosmos-2251-debris", "lat": -73.14941652884114, "lon": -160.54726730766424, "alt_km": 600.3992077666908, "timestamp": "2025-12-03T22:42:33.030502+00:00", "meta": {"OBJECT_NAME": "COSMOS 2251 DEB", "OBJECT_ID": "1993-036BRU", "EPOCH": "2025-12-02T15:30:52.155072", "MEAN_MOTION": 14.9400707, "ECCENTRICITY": 0.0011947, "INCLINATION": 74.0086, "RA_OF_ASC_NODE": 310.8403, "ARG_OF_PERICENTER": 79.5377, "MEAN_ANOMALY": 37.1284, "EPHEMERIS_TYPE": 0, "CLASSIFICATION_TYPE": "U", "NORAD_CAT_ID": 38062, "ELEMENT_SET_NO": 999, "REV_AT_EPOCH": 62879, "BSTAR": 0.0028464492, "MEAN_MOTION_DOT": 0.00030496, "MEAN_MOTION_DDOT": 0}, "tle": {"line1": "1 38062U 93036BRU 25336.64643698  .00030496  00000+0  28464-2 0  9992", "line2": "2 38062  74.0086 310.8403 0011947  79.5377  37.1284 14.94007070628794"}}, "geometry": {"type": "Point", "coordinates": [-160.54726730766424, -73.14941652884114]}}, {"type": "Feature", "properties": {"norad_id": 38064, "name": "COSMOS 2251 DEB", "group": "cosmos-2251-debris", "lat": -44.74992661482137, "lon": 124.32825011449559, "alt_km": 690.7839994914311, "timestamp": "2025-12-03T22:42:33.030511+00:00", "meta": {"OBJECT_NAME": "COSMOS 2251 DEB", "OBJECT_ID": "1993-036BRW", "EPOCH": "2025-12-02T10:38:59.788320", "MEAN_MOTION": 14.5615683, "ECCENTRICITY": 0.00475633, "INCLINATION": 74.0206, "RA_OF_ASC_NODE": 143.6816, "ARG_OF_PERICENTER": 264.8725, "MEAN_ANOMALY": 94.7009, "EPHEMERIS_TYPE": 0, "CLASSIFICATION_TYPE": "U", "NORAD_CAT_ID": 38064, "ELEMENT_SET_NO": 999, "REV_AT_EPOCH": 71715, "BSTAR": 0.0011546994, "MEAN_MOTION_DOT": 5.15e-05, "MEAN_MOTION_DDOT": 0}, "tle": {"line1": "1 38064U 93036BRW 25336.44374755  .00005150  00000+0  11547-2 0  9990", "line2": "2 38064  74.0206 143.6816 0047563 264.8725  94.7009 14.56156830717159"}}, "geometry": {"type": "Point", "coordinates": [124.32825011449559, -44.74992661482137]}}, {"type": "Feature", "properties": {"norad_id": 38067, "name": "COSMOS 2251 DEB", "group": "cosmos-2251-debris", "lat": 38.299656927099186, "lon": 98.25460877505482, "alt_km": 660.4806329644762, "timestamp": "2025-12-03T22:42:33.030520+00:00", "meta": {"OBJECT_NAME": "COSMOS 2251 DEB", "OBJECT_ID": "1993-036BRZ", "EPOCH": "2025-11-29T04:46:36.876288", "MEAN_MOTION": 14.61044936, "ECCENTRICITY": 0.00691529, "INCLINATION": 74.017, "RA_OF_ASC_NODE": 300.4181, "ARG_OF_PERICENTER": 91.9303, "MEAN_ANOMALY": 288.2542, "EPHEMERIS_TYPE": 0, "CLASSIFICATION_TYPE": "U", "NORAD_CAT_ID": 38067, "ELEMENT_SET_NO": 999, "REV_AT_EPOCH": 62358, "BSTAR": 0.00037425936, "MEAN_MOTION_DOT": 1.87e-05, "MEAN_MOTION_DDOT": 0}, "tle": {"line1": "1 38067U 93036BRZ 25333.19903792  .00001870  00000+0  37426-3 0  9991", "line2": "2 38067  74.0170 300.4181 0069152  91.9303 288.2542 14.61044936623583"}}, "geometry": {"type": "Point", "coordinates": [98.25460877505482, 38.299656927099186]}}]}